QIANFAN-145             
1 69104U 26108A   26198.48723973 -.02063621  00000+0 -28827+1 0  9994
2 69104  89.0095  19.0272 0016061   9.9324 350.2148 13.61619995  8523
QIANFAN-146             
1 69105U 26108B   26198.55254160 -.01966711  00000+0 -20094+1 0  9999
2 69105  89.0108  18.9129 0023416  25.3203 334.9107 13.80417761  8597
QIANFAN-147             
1 69106U 26108C   26198.63687907 -.02021223  00000+0 -31516+1 0  9990
2 69106  89.0104  19.0112 0022147  24.0671 336.1512 13.54575918  8531
QIANFAN-148             
1 69107U 26108D   26198.91981511  .00000056  00000+0  57071-4 0  9995
2 69107  89.0101  18.9768 0021922  20.5893 339.6142 13.62077419  8574
QIANFAN-149             
1 69108U 26108E   26198.66967220 -.01935573  00000+0 -30268+1 0  9998
2 69108  89.0098  19.0155 0023924  27.6047 332.6371 13.54897422  8544
QIANFAN-150             
1 69109U 26108F   26198.75128596  .00000015  00000+0  29477-5 0  9990
2 69109  89.0105  18.9742 0020812  16.8629 343.3217 13.64591714  8569
QIANFAN-151             
1 69110U 26108G   26198.64956490 -.02062229  00000+0 -29404+1 0  9996
2 69110  89.0097  18.9945 0016880  25.8433 334.3564 13.60331536  8542
QIANFAN-152             
1 69111U 26108H   26198.62207431 -.02037615  00000+0 -29723+1 0  9994
2 69111  89.0089  18.9901 0015632  20.8609 339.3181 13.58862327  8555
QIANFAN-153             
1 69112U 26108J   26198.63314038 -.02052179  00000+0 -26438+1 0  9990
2 69112  89.0096  18.9897 0025055  15.3635 344.8280 13.66534731  8540
QIANFAN-154             
1 69113U 26108K   26198.67530596 -.01892475  00000+0 -29751+1 0  9995
2 69113  89.0102  18.9998 0023892  20.6967 339.5148 13.54459207  8551
QIANFAN-155             
1 69114U 26108L   26198.61393140 -.02066885  00000+0 -29061+1 0  9995
2 69114  89.0104  18.9923 0017920  31.4823 328.7403 13.61208234  8541
QIANFAN-156             
1 69115U 26108M   26198.61942738 -.02096301  00000+0 -29597+1 0  9999
2 69115  89.0111  18.9790 0016172  14.8216 345.3412 13.61020546  8566
QIANFAN-157             
1 69116U 26108N   26198.89192976  .00000069  00000+0  60715-4 0  9994
2 69116  89.0097  18.9023 0020081  24.4779 335.7333 13.72883365  8624
QIANFAN-158             
1 69117U 26108P   26198.62373266 -.01920964  00000+0 -26169+1 0  9998
2 69117  89.0097  18.9548 0020130  21.3490 338.8504 13.63551563  8578
QIANFAN-159             
1 69118U 26108Q   26198.68518736 -.01903240  00000+0 -27547+1 0  9997
2 69118  89.0085  18.9594 0017844  11.1697 348.9852 13.59746963  8574
QIANFAN-160             
1 69119U 26108R   26198.65017982 -.01966887  00000+0 -29828+1 0  9992
2 69119  89.0105  18.9782 0022799  23.4486 336.7703 13.56216777  8565
