{"fetched_at":"2026-07-18T06:27:49.000Z","source":"https://celestrak.org/NORAD/elements/gp.php?GROUP=qianfan&FORMAT=JSON","constellation":"qianfan","records":[{"OBJECT_NAME":"QIANFAN-145","OBJECT_ID":"2026-108A","EPOCH":"2026-07-17T11:41:37.512672","CLASSIFICATION_TYPE":"U","MEAN_MOTION":13.61619995,"ECCENTRICITY":0.00160612,"INCLINATION":89.0095,"RA_OF_ASC_NODE":19.0272,"ARG_OF_PERICENTER":9.9324,"MEAN_ANOMALY":350.2148,"EPHEMERIS_TYPE":0,"NORAD_CAT_ID":69104,"ELEMENT_SET_NO":999,"REV_AT_EPOCH":852,"BSTAR":-2.8826845,"MEAN_MOTION_DOT":-0.02063621,"MEAN_MOTION_DDOT":0},{"OBJECT_NAME":"QIANFAN-146","OBJECT_ID":"2026-108B","EPOCH":"2026-07-17T13:15:39.594240","CLASSIFICATION_TYPE":"U","MEAN_MOTION":13.80417761,"ECCENTRICITY":0.00234162,"INCLINATION":89.0108,"RA_OF_ASC_NODE":18.9129,"ARG_OF_PERICENTER":25.3203,"MEAN_ANOMALY":334.9107,"EPHEMERIS_TYPE":0,"NORAD_CAT_ID":69105,"ELEMENT_SET_NO":999,"REV_AT_EPOCH":859,"BSTAR":-2.0093556,"MEAN_MOTION_DOT":-0.01966711,"MEAN_MOTION_DDOT":0},{"OBJECT_NAME":"QIANFAN-147","OBJECT_ID":"2026-108C","EPOCH":"2026-07-17T15:17:06.351648","CLASSIFICATION_TYPE":"U","MEAN_MOTION":13.54575918,"ECCENTRICITY":0.0022147,"INCLINATION":89.0104,"RA_OF_ASC_NODE":19.0112,"ARG_OF_PERICENTER":24.0671,"MEAN_ANOMALY":336.1512,"EPHEMERIS_TYPE":0,"NORAD_CAT_ID":69106,"ELEMENT_SET_NO":999,"REV_AT_EPOCH":853,"BSTAR":-3.1516392,"MEAN_MOTION_DOT":-0.02021223,"MEAN_MOTION_DDOT":0},{"OBJECT_NAME":"QIANFAN-148","OBJECT_ID":"2026-108D","EPOCH":"2026-07-17T22:04:32.025504","CLASSIFICATION_TYPE":"U","MEAN_MOTION":13.62077419,"ECCENTRICITY":0.00219224,"INCLINATION":89.0101,"RA_OF_ASC_NODE":18.9768,"ARG_OF_PERICENTER":20.5893,"MEAN_ANOMALY":339.6142,"EPHEMERIS_TYPE":0,"NORAD_CAT_ID":69107,"ELEMENT_SET_NO":999,"REV_AT_EPOCH":857,"BSTAR":0.000057070641,"MEAN_MOTION_DOT":5.6e-7,"MEAN_MOTION_DDOT":0},{"OBJECT_NAME":"QIANFAN-149","OBJECT_ID":"2026-108E","EPOCH":"2026-07-17T16:04:19.678080","CLASSIFICATION_TYPE":"U","MEAN_MOTION":13.54897422,"ECCENTRICITY":0.0023924,"INCLINATION":89.0098,"RA_OF_ASC_NODE":19.0155,"ARG_OF_PERICENTER":27.6047,"MEAN_ANOMALY":332.6371,"EPHEMERIS_TYPE":0,"NORAD_CAT_ID":69108,"ELEMENT_SET_NO":999,"REV_AT_EPOCH":854,"BSTAR":-3.0268181,"MEAN_MOTION_DOT":-0.01935573,"MEAN_MOTION_DDOT":0},{"OBJECT_NAME":"QIANFAN-150","OBJECT_ID":"2026-108F","EPOCH":"2026-07-17T18:01:51.106944","CLASSIFICATION_TYPE":"U","MEAN_MOTION":13.64591714,"ECCENTRICITY":0.00208123,"INCLINATION":89.0105,"RA_OF_ASC_NODE":18.9742,"ARG_OF_PERICENTER":16.8629,"MEAN_ANOMALY":343.3217,"EPHEMERIS_TYPE":0,"NORAD_CAT_ID":69109,"ELEMENT_SET_NO":999,"REV_AT_EPOCH":856,"BSTAR":0.000002947727,"MEAN_MOTION_DOT":1.5e-7,"MEAN_MOTION_DDOT":0},{"OBJECT_NAME":"QIANFAN-151","OBJECT_ID":"2026-108G","EPOCH":"2026-07-17T15:35:22.407360","CLASSIFICATION_TYPE":"U","MEAN_MOTION":13.60331536,"ECCENTRICITY":0.00168809,"INCLINATION":89.0097,"RA_OF_ASC_NODE":18.9945,"ARG_OF_PERICENTER":25.8433,"MEAN_ANOMALY":334.3564,"EPHEMERIS_TYPE":0,"NORAD_CAT_ID":69110,"ELEMENT_SET_NO":999,"REV_AT_EPOCH":854,"BSTAR":-2.9404033,"MEAN_MOTION_DOT":-0.02062229,"MEAN_MOTION_DDOT":0},{"OBJECT_NAME":"QIANFAN-152","OBJECT_ID":"2026-108H","EPOCH":"2026-07-17T14:55:47.220384","CLASSIFICATION_TYPE":"U","MEAN_MOTION":13.58862327,"ECCENTRICITY":0.00156323,"INCLINATION":89.0089,"RA_OF_ASC_NODE":18.9901,"ARG_OF_PERICENTER":20.8609,"MEAN_ANOMALY":339.3181,"EPHEMERIS_TYPE":0,"NORAD_CAT_ID":69111,"ELEMENT_SET_NO":999,"REV_AT_EPOCH":855,"BSTAR":-2.9722786,"MEAN_MOTION_DOT":-0.02037615,"MEAN_MOTION_DDOT":0},{"OBJECT_NAME":"QIANFAN-153","OBJECT_ID":"2026-108J","EPOCH":"2026-07-17T15:11:43.328832","CLASSIFICATION_TYPE":"U","MEAN_MOTION":13.66534731,"ECCENTRICITY":0.00250557,"INCLINATION":89.0096,"RA_OF_ASC_NODE":18.9897,"ARG_OF_PERICENTER":15.3635,"MEAN_ANOMALY":344.828,"EPHEMERIS_TYPE":0,"NORAD_CAT_ID":69112,"ELEMENT_SET_NO":999,"REV_AT_EPOCH":854,"BSTAR":-2.6438329,"MEAN_MOTION_DOT":-0.02052179,"MEAN_MOTION_DDOT":0},{"OBJECT_NAME":"QIANFAN-154","OBJECT_ID":"2026-108K","EPOCH":"2026-07-17T16:12:26.434944","CLASSIFICATION_TYPE":"U","MEAN_MOTION":13.54459207,"ECCENTRICITY":0.00238929,"INCLINATION":89.0102,"RA_OF_ASC_NODE":18.9998,"ARG_OF_PERICENTER":20.6967,"MEAN_ANOMALY":339.5148,"EPHEMERIS_TYPE":0,"NORAD_CAT_ID":69113,"ELEMENT_SET_NO":999,"REV_AT_EPOCH":855,"BSTAR":-2.9751076,"MEAN_MOTION_DOT":-0.01892475,"MEAN_MOTION_DDOT":0},{"OBJECT_NAME":"QIANFAN-155","OBJECT_ID":"2026-108L","EPOCH":"2026-07-17T14:44:03.672960","CLASSIFICATION_TYPE":"U","MEAN_MOTION":13.61208234,"ECCENTRICITY":0.001792,"INCLINATION":89.0104,"RA_OF_ASC_NODE":18.9923,"ARG_OF_PERICENTER":31.4823,"MEAN_ANOMALY":328.7403,"EPHEMERIS_TYPE":0,"NORAD_CAT_ID":69114,"ELEMENT_SET_NO":999,"REV_AT_EPOCH":854,"BSTAR":-2.9060652,"MEAN_MOTION_DOT":-0.02066885,"MEAN_MOTION_DDOT":0},{"OBJECT_NAME":"QIANFAN-156","OBJECT_ID":"2026-108M","EPOCH":"2026-07-17T14:51:58.525632","CLASSIFICATION_TYPE":"U","MEAN_MOTION":13.61020546,"ECCENTRICITY":0.00161729,"INCLINATION":89.0111,"RA_OF_ASC_NODE":18.979,"ARG_OF_PERICENTER":14.8216,"MEAN_ANOMALY":345.3412,"EPHEMERIS_TYPE":0,"NORAD_CAT_ID":69115,"ELEMENT_SET_NO":999,"REV_AT_EPOCH":856,"BSTAR":-2.9597207,"MEAN_MOTION_DOT":-0.02096301,"MEAN_MOTION_DDOT":0},{"OBJECT_NAME":"QIANFAN-157","OBJECT_ID":"2026-108N","EPOCH":"2026-07-17T21:24:22.731264","CLASSIFICATION_TYPE":"U","MEAN_MOTION":13.72883365,"ECCENTRICITY":0.00200818,"INCLINATION":89.0097,"RA_OF_ASC_NODE":18.9023,"ARG_OF_PERICENTER":24.4779,"MEAN_ANOMALY":335.7333,"EPHEMERIS_TYPE":0,"NORAD_CAT_ID":69116,"ELEMENT_SET_NO":999,"REV_AT_EPOCH":862,"BSTAR":0.000060714954,"MEAN_MOTION_DOT":6.9e-7,"MEAN_MOTION_DDOT":0},{"OBJECT_NAME":"QIANFAN-158","OBJECT_ID":"2026-108P","EPOCH":"2026-07-17T14:58:10.501824","CLASSIFICATION_TYPE":"U","MEAN_MOTION":13.63551563,"ECCENTRICITY":0.00201308,"INCLINATION":89.0097,"RA_OF_ASC_NODE":18.9548,"ARG_OF_PERICENTER":21.349,"MEAN_ANOMALY":338.8504,"EPHEMERIS_TYPE":0,"NORAD_CAT_ID":69117,"ELEMENT_SET_NO":999,"REV_AT_EPOCH":857,"BSTAR":-2.6168924,"MEAN_MOTION_DOT":-0.01920964,"MEAN_MOTION_DDOT":0},{"OBJECT_NAME":"QIANFAN-159","OBJECT_ID":"2026-108Q","EPOCH":"2026-07-17T16:26:40.187904","CLASSIFICATION_TYPE":"U","MEAN_MOTION":13.59746963,"ECCENTRICITY":0.00178446,"INCLINATION":89.0085,"RA_OF_ASC_NODE":18.9594,"ARG_OF_PERICENTER":11.1697,"MEAN_ANOMALY":348.9852,"EPHEMERIS_TYPE":0,"NORAD_CAT_ID":69118,"ELEMENT_SET_NO":999,"REV_AT_EPOCH":857,"BSTAR":-2.7546816,"MEAN_MOTION_DOT":-0.0190324,"MEAN_MOTION_DDOT":0},{"OBJECT_NAME":"QIANFAN-160","OBJECT_ID":"2026-108R","EPOCH":"2026-07-17T15:36:15.536448","CLASSIFICATION_TYPE":"U","MEAN_MOTION":13.56216777,"ECCENTRICITY":0.00227996,"INCLINATION":89.0105,"RA_OF_ASC_NODE":18.9782,"ARG_OF_PERICENTER":23.4486,"MEAN_ANOMALY":336.7703,"EPHEMERIS_TYPE":0,"NORAD_CAT_ID":69119,"ELEMENT_SET_NO":999,"REV_AT_EPOCH":856,"BSTAR":-2.9828328,"MEAN_MOTION_DOT":-0.01966887,"MEAN_MOTION_DDOT":0}]}
